NORAD_CAT_ID,OBJECT_NAME,OBJECT_TYPE,EPOCH,MEAN_MOTION,ECCENTRICITY,INCLINATION,RA_OF_ASC_NODE,ARG_OF_PERICENTER,MEAN_ANOMALY,BSTAR,MEAN_MOTION_DOT,MEAN_MOTION_DDOT,TLE_LINE0,TLE_LINE1,TLE_LINE2,SEMIMAJOR_AXIS,PERIOD,APOGEE,PERIGEE,DECAYED
55955.0,STARLINK-5878,PAYLOAD,2024-08-01 11:32:47,14.98334784,0.0003022,70.0004,300.0127,270.6969,89.3844,0.00012091,1.35e-05,0.0,0 STARLINK-5878,1 55955U 23037AT  24214.48110674  .00001350  00000-0  12091-3 0  9993,2 55955  70.0004 300.0127 0003022 270.6969  89.3844 14.98334784 76810,6950.178,96.107,574.143,569.943,0.0
55955.0,STARLINK-5878,PAYLOAD,2024-08-01 16:21:11,14.98313262,0.0003053,70.0005,299.5082,265.8621,94.2189,0.00064931,7.66e-05,0.0,0 STARLINK-5878,1 55955U 23037AT  24214.68138668  .00007660  00000-0  64931-3 0  9998,2 55955  70.0005 299.5082 0003053 265.8621  94.2189 14.98313262 76846,6950.245,96.108,574.232,569.988,0.0
55955.0,STARLINK-5878,PAYLOAD,2024-08-01 22:45:45,14.98323269,0.0002025,70.0015,298.8355,276.9033,83.1896,-1.5621e-05,-2.79e-06,0.0,0 STARLINK-5878,1 55955U 23037AT  24214.94843894 -.00000279  00000-0 -15621-4 0  9995,2 55955  70.0015 298.8355 0002025 276.9033  83.1896 14.98323269 77223,6950.214,96.107,573.486,570.671,0.0
55955.0,STARLINK-5878,PAYLOAD,2024-08-02 13:10:58,14.98315958,0.0002917,70.0005,297.321,268.4661,91.6164,-7.8674e-05,-1.031e-05,0.0,0 STARLINK-5878,1 55955U 23037AT  24215.54928518 -.00001031  00000-0 -78674-4 0  9993,2 55955  70.0005 297.3210 0002917 268.4661  91.6164 14.98315958 77317,6950.236,96.108,574.129,570.074,0.0
55955.0,STARLINK-5878,PAYLOAD,2024-08-02 14:47:06,14.98316721,0.0002909,70.0005,297.1527,268.7384,91.3442,-6.9502e-05,-9.22e-06,0.0,0 STARLINK-5878,1 55955U 23037AT  24215.61604495 -.00000922  00000-0 -69502-4 0  9994,2 55955  70.0005 297.1527 0002909 268.7384  91.3442 14.98316721 76989,6950.234,96.108,574.121,570.077,0.0
55955.0,STARLINK-5878,PAYLOAD,2024-08-03 05:12:17,14.98335754,0.0003182,70.0001,295.6356,272.591,87.4885,-1.7221e-05,-2.99e-06,0.0,0 STARLINK-5878,1 55955U 23037AT  24216.21687183 -.00000299  00000-0 -17221-4 0  9994,2 55955  70.0001 295.6356 0003182 272.5910  87.4885 14.98335754 77413,6950.175,96.107,574.252,569.829,0.0
55955.0,STARLINK-5878,PAYLOAD,2024-08-03 13:12:57,14.98345392,0.0003212,69.9998,294.7946,272.3697,87.7094,2.4133e-05,1.95e-06,0.0,0 STARLINK-5878,1 55955U 23037AT  24216.55066281  .00000195  00000-0  24133-4 0  9994,2 55955  69.9998 294.7946 0003212 272.3697  87.7094 14.98345392 77463,6950.145,96.106,574.243,569.778,0.0
55955.0,STARLINK-5878,PAYLOAD,2024-08-03 14:49:05,14.98347293,0.0003106,70.0,294.6266,270.2084,89.8719,3.8461e-05,3.66e-06,0.0,0 STARLINK-5878,1 55955U 23037AT  24216.61742060  .00000366  00000-0  38461-4 0  9996,2 55955  70.0000 294.6266 0003106 270.2084  89.8719 14.98347293 77136,6950.139,96.106,574.163,569.846,0.0
55955.0,STARLINK-5878,PAYLOAD,2024-08-04 05:14:18,14.98321385,0.0003132,70.0002,293.112,275.1715,84.9087,0.00010241,1.129e-05,0.0,0 STARLINK-5878,1 55955U 23037AT  24217.21827316  .00001129  00000-0  10241-3 0  9994,2 55955  70.0002 293.1120 0003132 275.1715  84.9087 14.98321385 77560,6950.22,96.108,574.261,569.908,0.0
55955.0,STARLINK-5878,PAYLOAD,2024-08-04 13:14:58,14.98328071,0.0002907,70.0,292.2682,269.1867,90.8959,0.00018029,2.059e-05,0.0,0 STARLINK-5878,1 55955U 23037AT  24217.55206705  .00002059  00000-0  18029-3 0  9999,2 55955  70.0000 292.2682 0002907 269.1867  90.8959 14.98328071 77610,6950.199,96.107,574.084,570.043,0.0
55955.0,STARLINK-5878,PAYLOAD,2024-08-04 14:51:06,14.98330447,0.0002884,70.0004,292.1007,269.5857,90.4971,0.0002074,2.383e-05,0.0,0 STARLINK-5878,1 55955U 23037AT  24217.61882486  .00002383  00000-0  20740-3 0  9995,2 55955  70.0004 292.1007 0002884 269.5857  90.4971 14.98330447 77284,6950.192,96.107,574.061,570.052,0.0
55955.0,STARLINK-5878,PAYLOAD,2024-08-04 22:51:47,14.98322375,0.0003191,70.0003,291.2598,272.908,87.1713,-6.0166e-05,-8.11e-06,0.0,0 STARLINK-5878,1 55955U 23037AT  24217.95263701 -.00000811  00000-0 -60166-4 0  9998,2 55955  70.0003 291.2598 0003191 272.9080  87.1713 14.98322375 77330,6950.216,96.107,574.299,569.864,0.0
55955.0,STARLINK-5878,PAYLOAD,2024-08-05 05:16:20,14.98320053,0.0002178,70.0001,290.5868,277.5637,82.5274,-0.000179,-2.227e-05,0.0,0 STARLINK-5878,1 55955U 23037AT  24218.21968721 -.00002227  00000-0 -17900-3 0  9992,2 55955  70.0001 290.5868 0002178 277.5637  82.5274 14.98320053 77717,6950.224,96.108,573.602,570.575,0.0
55955.0,STARLINK-5878,PAYLOAD,2024-08-05 13:17:02,14.98307526,0.0003026,69.9998,289.7449,270.5182,89.5631,-0.00035492,-4.323e-05,0.0,0 STARLINK-5878,1 55955U 23037AT  24218.55350179 -.00004323  00000-0 -35492-3 0  9996,2 55955  69.9998 289.7449 0003026 270.5182  89.5631 14.98307526 77764,6950.262,96.108,574.231,570.024,0.0
55955.0,STARLINK-5878,PAYLOAD,2024-08-05 14:53:10,14.98308884,0.000301,69.9999,289.5766,270.9618,89.1196,-0.00034525,-4.208e-05,0.0,0 STARLINK-5878,1 55955U 23037AT  24218.62026153 -.00004208  00000-0 -34525-3 0  9994,2 55955  69.9999 289.5766 0003010 270.9618  89.1196 14.98308884 77430,6950.258,96.108,574.215,570.031,0.0
55955.0,STARLINK-5878,PAYLOAD,2024-08-06 05:18:22,14.98317841,0.0003382,69.9978,288.0576,272.6203,87.4569,-0.00011205,-1.429e-05,0.0,0 STARLINK-5878,1 55955U 23037AT  24219.22109461 -.00001429  00000-0 -11205-3 0  9997,2 55955  69.9978 288.0576 0003382 272.6203  87.4569 14.98317841 77866,6950.23,96.108,574.446,569.745,0.0
55955.0,STARLINK-5878,PAYLOAD,2024-08-06 13:19:03,14.98317183,0.0002482,70.0014,287.2242,249.8106,110.2786,-0.00010555,-1.352e-05,0.0,0 STARLINK-5878,1 55955U 23037AT  24219.55489830 -.00001352  00000-0 -10555-3 0  9996,2 55955  70.0014 287.2242 0002482 249.8106 110.2786 14.98317183 77572,6950.233,96.108,573.823,570.372,0.0
55955.0,STARLINK-5878,PAYLOAD,2024-08-07 11:44:54,14.98327242,0.0002564,70.0009,284.8672,249.711,110.3774,0.00041415,4.852e-05,0.0,0 STARLINK-5878,1 55955U 23037AT  24220.48952053  .00004852  00000-0  41415-3 0  9997,2 55955  70.0009 284.8672 0002564 249.7110 110.3774 14.98327242 78050,6950.201,96.107,573.848,570.284,0.0
55955.0,STARLINK-5878,PAYLOAD,2024-08-08 13:23:02,14.98337515,0.0002549,70.0008,282.1723,251.1572,108.9311,0.00033235,3.875e-05,0.0,0 STARLINK-5878,1 55955U 23037AT  24221.55766939  .00003875  00000-0  33235-3 0  9997,2 55955  70.0008 282.1723 0002549 251.1572 108.9311 14.98337515 77872,6950.17,96.107,573.806,570.263,0.0
55955.0,STARLINK-5878,PAYLOAD,2024-08-09 11:48:56,14.98330222,0.0002734,70.0,279.8155,264.812,95.2727,-0.0003043,-3.722e-05,0.0,0 STARLINK-5878,1 55955U 23037AT  24222.49231618 -.00003722  00000-0 -30430-3 0  9999,2 55955  70.0000 279.8155 0002734 264.8120  95.2727 14.98330222 78353,6950.192,96.107,573.957,570.157,0.0
55955.0,STARLINK-5878,PAYLOAD,2024-08-09 13:25:04,14.98330845,0.0002823,69.9998,279.6469,266.4756,93.608,-0.00029741,-3.64e-05,0.0,0 STARLINK-5878,1 55955U 23037AT  24222.55907527 -.00003640  00000-0 -29741-3 0  9997,2 55955  69.9998 279.6469 0002823 266.4756  93.6080 14.98330845 78023,6950.19,96.107,574.017,570.093,0.0
55955.0,STARLINK-5878,PAYLOAD,2024-08-10 11:50:56,14.98335234,0.0002888,69.9991,277.2881,265.6793,94.4036,-0.00018951,-2.354e-05,0.0,0 STARLINK-5878,1 55955U 23037AT  24223.49370673 -.00002354  00000-0 -18951-3 0  9999,2 55955  69.9991 277.2881 0002888 265.6793  94.4036 14.98335234 78501,6950.177,96.107,574.049,570.034,0.0
55955.0,STARLINK-5878,PAYLOAD,2024-08-10 13:27:04,14.98337338,0.0002875,69.9994,277.1203,265.0038,95.0793,-0.00017105,-2.134e-05,0.0,0 STARLINK-5878,1 55955U 23037AT  24223.56046408 -.00002134  00000-0 -17105-3 0  9999,2 55955  69.9994 277.1203 0002875 265.0038  95.0793 14.98337338 78170,6950.17,96.107,574.033,570.037,0.0
55955.0,STARLINK-5878,PAYLOAD,2024-08-11 10:16:48,14.98344378,0.0003075,69.9992,274.9338,269.6213,90.4594,-0.00026908,-3.303e-05,0.0,0 STARLINK-5878,1 55955U 23037AT  24224.42834202 -.00003303  00000-0 -26908-3 0  9992,2 55955  69.9992 274.9338 0003075 269.6213  90.4594 14.98344378 78642,6950.148,96.106,574.151,569.876,0.0
55955.0,STARLINK-5878,PAYLOAD,2024-08-12 10:18:48,14.98345942,0.000277,69.9994,272.4099,257.2107,102.8742,-1.1022e-06,-1.06e-06,0.0,0 STARLINK-5878,1 55955U 23037AT  24225.42973263 -.00000106  00000-0 -11022-5 0  9995,2 55955  69.9994 272.4099 0002770 257.2107 102.8742 14.98345942 78794,6950.144,96.106,573.934,570.083,0.0
55955.0,STARLINK-5878,PAYLOAD,2024-08-12 19:55:37,14.98333811,0.0002918,69.9985,271.3986,253.9468,106.137,0.00020422,2.345e-05,0.0,0 STARLINK-5878,1 55955U 23037AT  24225.83029259  .00002345  00000-0  20422-3 0  9994,2 55955  69.9985 271.3986 0002918 253.9468 106.1370 14.98333811 78857,6950.181,96.107,574.074,570.018,0.0
55955.0,STARLINK-5878,PAYLOAD,2024-08-13 05:32:27,14.98318639,0.0002781,69.9996,270.3871,267.5871,92.4969,-4.2319e-05,-5.98e-06,0.0,0 STARLINK-5878,1 55955U 23037AT  24226.23086911 -.00000598  00000-0 -42319-4 0  9997,2 55955  69.9996 270.3871 0002781 267.5871  92.4969 14.98318639 78917,6950.228,96.108,574.026,570.16,0.0
55955.0,STARLINK-5878,PAYLOAD,2024-08-13 10:20:51,14.98318488,0.0002576,69.9987,269.8817,259.4392,100.6477,-8.2109e-05,-1.072e-05,0.0,0 STARLINK-5878,1 55955U 23037AT  24226.43115156 -.00001072  00000-0 -82109-4 0  9992,2 55955  69.9987 269.8817 0002576 259.4392 100.6477 14.98318488 78604,6950.228,96.108,573.884,570.303,0.0
55955.0,STARLINK-5878,PAYLOAD,2024-08-13 19:57:39,14.98335005,0.0002822,69.9988,268.8718,270.1482,89.9354,-0.00037534,-4.569e-05,0.0,0 STARLINK-5878,1 55955U 23037AT  24226.83170950 -.00004569  00000-0 -37534-3 0  9994,2 55955  69.9988 268.8718 0002822 270.1482  89.9354 14.98335005 79000,6950.177,96.107,574.004,570.081,0.0
55955.0,STARLINK-5878,PAYLOAD,2024-08-14 03:58:20,14.98323213,0.0002782,69.9986,268.0303,267.9312,92.1528,-0.00016171,-2.022e-05,0.0,0 STARLINK-5878,1 55955U 23037AT  24227.16551466 -.00002022  00000-0 -16171-3 0  9992,2 55955  69.9986 268.0303 0002782 267.9312  92.1528 14.98323213 79053,6950.214,96.107,574.012,570.145,0.0
